ISS (ZARYA)             
1 25544U 98067A   26204.18538858  .00009623  00000+0  18183-3 0  9993
2 25544  51.6313 121.9488 0006905 328.2241  31.8329 15.49110422577336
