{"fetched_at":"2026-07-23T17:55:17.051Z","source":"https://celestrak.org/NORAD/elements/gp.php?GROUP=stations&FORMAT=JSON","constellation":"iss","records":[{"OBJECT_NAME":"ISS (ZARYA)","OBJECT_ID":"1998-067A","EPOCH":"2026-07-23T04:26:57.573312","CLASSIFICATION_TYPE":"U","MEAN_MOTION":15.49110422,"ECCENTRICITY":0.00069055,"INCLINATION":51.6313,"RA_OF_ASC_NODE":121.9488,"ARG_OF_PERICENTER":328.2241,"MEAN_ANOMALY":31.8329,"EPHEMERIS_TYPE":0,"NORAD_CAT_ID":25544,"ELEMENT_SET_NO":999,"REV_AT_EPOCH":57733,"BSTAR":0.00018182545,"MEAN_MOTION_DOT":0.00009623,"MEAN_MOTION_DDOT":0}]}
